{"type": "FeatureCollection", "features": [ {"type": "Feature", "properties": {"norad_id": 34432, "name": "COSMOS 2251 DEB", "group": "cosmos-2251-debris", "lat": 72.89687379875187, "lon": -136.7899650592975, "alt_km": 901.4280372369858, "timestamp": "2025-12-06T05:40:09.639804+00:00", "meta": {"OBJECT_NAME": "COSMOS 2251 DEB", "OBJECT_ID": "1993-036RZ", "EPOCH": "2025-12-04T19:33:44.459424", "MEAN_MOTION": 14.02852519, "ECCENTRICITY": 0.01830948, "INCLINATION": 73.8279, "RA_OF_ASC_NODE": 116.2854, "ARG_OF_PERICENTER": 200.1763, "MEAN_ANOMALY": 283.1494, "EPHEMERIS_TYPE": 0, "CLASSIFICATION_TYPE": "U", "NORAD_CAT_ID": 34432, "ELEMENT_SET_NO": 999, "REV_AT_EPOCH": 85573, "BSTAR": 0.0023683245, "MEAN_MOTION_DOT": 4.228e-05, "MEAN_MOTION_DDOT": 0}, "tle": {"line1": "1 34432U 93036RZ  25338.81509791  .00004228  00000+0  23683-2 0  9997", "line2": "2 34432  73.8279 116.2854 0183094 200.1763 283.1494 14.02852519855731"}}, "geometry": {"type": "Point", "coordinates": [-136.7899650592975, 72.89687379875187]}}, {"type": "Feature", "properties": {"norad_id": 34433, "name": "COSMOS 2251 DEB", "group": "cosmos-2251-debris", "lat": -62.97929461436942, "lon": 20.66702576799565, "alt_km": 797.3791456082045, "timestamp": "2025-12-06T05:40:09.639815+00:00", "meta": {"OBJECT_NAME": "COSMOS 2251 DEB", "OBJECT_ID": "1993-036SA", "EPOCH": "2025-12-04T23:35:46.875552", "MEAN_MOTION": 14.12799943, "ECCENTRICITY": 0.01518124, "INCLINATION": 74.011, "RA_OF_ASC_NODE": 168.676, "ARG_OF_PERICENTER": 308.4632, "MEAN_ANOMALY": 50.2965, "EPHEMERIS_TYPE": 0, "CLASSIFICATION_TYPE": "U", "NORAD_CAT_ID": 34433, "ELEMENT_SET_NO": 999, "REV_AT_EPOCH": 85840, "BSTAR": 0.0024661945, "MEAN_MOTION_DOT": 5.088e-05, "MEAN_MOTION_DDOT": 0}, "tle": {"line1": "1 34433U 93036SA  25338.98318143  .00005088  00000+0  24662-2 0  9998", "line2": "2 34433  74.0110 168.6760 0151812 308.4632  50.2965 14.12799943858401"}}, "geometry": {"type": "Point", "coordinates": [20.66702576799565, -62.97929461436942]}}, {"type": "Feature", "properties": {"norad_id": 34434, "name": "COSMOS 2251 DEB", "group": "cosmos-2251-debris", "lat": -37.95208707826566, "lon": 8.308636611204628, "alt_km": 1124.8393751655103, "timestamp": "2025-12-06T05:40:09.639826+00:00", "meta": {"OBJECT_NAME": "COSMOS 2251 DEB", "OBJECT_ID": "1993-036SB", "EPOCH": "2025-12-05T06:07:47.245152", "MEAN_MOTION": 13.89728039, "ECCENTRICITY": 0.02759833, "INCLINATION": 74.0635, "RA_OF_ASC_NODE": 22.8522, "ARG_OF_PERICENTER": 161.8764, "MEAN_ANOMALY": 292.1972, "EPHEMERIS_TYPE": 0, "CLASSIFICATION_TYPE": "U", "NORAD_CAT_ID": 34434, "ELEMENT_SET_NO": 999, "REV_AT_EPOCH": 83862, "BSTAR": 0.005040405, "MEAN_MOTION_DOT": 8.388e-05, "MEAN_MOTION_DDOT": 0}, "tle": {"line1": "1 34434U 93036SB  25339.25540793  .00008388  00000+0  50404-2 0  9997", "line2": "2 34434  74.0635  22.8522 0275983 161.8764 292.1972 13.89728039838622"}}, "geometry": {"type": "Point", "coordinates": [8.308636611204628, -37.95208707826566]}}, {"type": "Feature", "properties": {"norad_id": 34446, "name": "COSMOS 2251 DEB", "group": "cosmos-2251-debris", "lat": -11.686145470288524, "lon": -107.12934705863036, "alt_km": 696.7888789893177, "timestamp": "2025-12-06T05:40:09.639836+00:00", "meta": {"OBJECT_NAME": "COSMOS 2251 DEB", "OBJECT_ID": "1993-036SP", "EPOCH": "2025-12-05T07:14:53.342592", "MEAN_MOTION": 14.49339015, "ECCENTRICITY": 0.00514923, "INCLINATION": 74.0421, "RA_OF_ASC_NODE": 71.2288, "ARG_OF_PERICENTER": 210.9447, "MEAN_ANOMALY": 148.8677, "EPHEMERIS_TYPE": 0, "CLASSIFICATION_TYPE": "U", "NORAD_CAT_ID": 34446, "ELEMENT_SET_NO": 999, "REV_AT_EPOCH": 88586, "BSTAR": 0.00030829216, "MEAN_MOTION_DOT": 1.169e-05, "MEAN_MOTION_DDOT": 0}, "tle": {"line1": "1 34446U 93036SP  25339.30200628  .00001169  00000+0  30829-3 0  9996", "line2": "2 34446  74.0421  71.2288 0051492 210.9447 148.8677 14.49339015885862"}}, "geometry": {"type": "Point", "coordinates": [-107.12934705863036, -11.686145470288524]}}, {"type": "Feature", "properties": {"norad_id": 34449, "name": "COSMOS 2251 DEB", "group": "cosmos-2251-debris", "lat": 1.1680102625950755, "lon": 84.00269636663678, "alt_km": 597.8882965460862, "timestamp": "2025-12-06T05:40:09.639847+00:00", "meta": {"OBJECT_NAME": "COSMOS 2251 DEB", "OBJECT_ID": "1993-036SS", "EPOCH": "2025-12-05T07:18:27.319968", "MEAN_MOTION": 14.94156293, "ECCENTRICITY": 0.00243281, "INCLINATION": 74.0326, "RA_OF_ASC_NODE": 85.5444, "ARG_OF_PERICENTER": 132.8745, "MEAN_ANOMALY": 258.8109, "EPHEMERIS_TYPE": 0, "CLASSIFICATION_TYPE": "U", "NORAD_CAT_ID": 34449, "ELEMENT_SET_NO": 999, "REV_AT_EPOCH": 88582, "BSTAR": 0.0057518318, "MEAN_MOTION_DOT": 0.00062448, "MEAN_MOTION_DDOT": 0}, "tle": {"line1": "1 34449U 93036SS  25339.30448287  .00062448  00000+0  57518-2 0  9994", "line2": "2 34449  74.0326  85.5444 0024328 132.8745 258.8109 14.94156293885825"}}, "geometry": {"type": "Point", "coordinates": [84.00269636663678, 1.1680102625950755]}}, {"type": "Feature", "properties": {"norad_id": 34451, "name": "COSMOS 2251 DEB", "group": "cosmos-2251-debris", "lat": -41.68084072277761, "lon": 86.23014332498545, "alt_km": 605.948980735775, "timestamp": "2025-12-06T05:40:09.639857+00:00", "meta": {"OBJECT_NAME": "COSMOS 2251 DEB", "OBJECT_ID": "1993-036SU", "EPOCH": "2025-12-05T07:22:46.998624", "MEAN_MOTION": 14.94858575, "ECCENTRICITY": 0.00252031, "INCLINATION": 74.0481, "RA_OF_ASC_NODE": 102.8548, "ARG_OF_PERICENTER": 127.6534, "MEAN_ANOMALY": 232.6942, "EPHEMERIS_TYPE": 0, "CLASSIFICATION_TYPE": "U", "NORAD_CAT_ID": 34451, "ELEMENT_SET_NO": 999, "REV_AT_EPOCH": 88524, "BSTAR": 0.0054169098, "MEAN_MOTION_DOT": 0.00059873, "MEAN_MOTION_DDOT": 0}, "tle": {"line1": "1 34451U 93036SU  25339.30748841  .00059873  00000+0  54169-2 0  9993", "line2": "2 34451  74.0481 102.8548 0025203 127.6534 232.6942 14.94858575885242"}}, "geometry": {"type": "Point", "coordinates": [86.23014332498545, -41.68084072277761]}}, {"type": "Feature", "properties": {"norad_id": 34452, "name": "COSMOS 2251 DEB", "group": "cosmos-2251-debris", "lat": 25.098702838906824, "lon": -156.01730927482333, "alt_km": 548.1688337390642, "timestamp": "2025-12-06T05:40:09.639868+00:00", "meta": {"OBJECT_NAME": "COSMOS 2251 DEB", "OBJECT_ID": "1993-036SV", "EPOCH": "2025-12-04T19:10:00.914880", "MEAN_MOTION": 15.11366694, "ECCENTRICITY": 0.00672672, "INCLINATION": 74.0357, "RA_OF_ASC_NODE": 199.2494, "ARG_OF_PERICENTER": 277.2404, "MEAN_ANOMALY": 209.6091, "EPHEMERIS_TYPE": 0, "CLASSIFICATION_TYPE": "U", "NORAD_CAT_ID": 34452, "ELEMENT_SET_NO": 999, "REV_AT_EPOCH": 90542, "BSTAR": 0.0016319745, "MEAN_MOTION_DOT": 0.00029155, "MEAN_MOTION_DDOT": 0}, "tle": {"line1": "1 34452U 93036SV  25338.79862170  .00029155  00000+0  16320-2 0  9995", "line2": "2 34452  74.0357 199.2494 0067267 277.2404 209.6091 15.11366694905427"}}, "geometry": {"type": "Point", "coordinates": [-156.01730927482333, 25.098702838906824]}}, {"type": "Feature", "properties": {"norad_id": 34453, "name": "COSMOS 2251 DEB", "group": "cosmos-2251-debris", "lat": -61.51671848235593, "lon": -34.431625857226024, "alt_km": 380.15808791305517, "timestamp": "2025-12-06T05:40:09.639879+00:00", "meta": {"OBJECT_NAME": "COSMOS 2251 DEB", "OBJECT_ID": "1993-036SW", "EPOCH": "2025-12-04T18:49:40.253088", "MEAN_MOTION": 15.61070868, "ECCENTRICITY": 0.00199956, "INCLINATION": 74.1155, "RA_OF_ASC_NODE": 117.1411, "ARG_OF_PERICENTER": 349.5838, "MEAN_ANOMALY": 10.4964, "EPHEMERIS_TYPE": 0, "CLASSIFICATION_TYPE": "U", "NORAD_CAT_ID": 34453, "ELEMENT_SET_NO": 999, "REV_AT_EPOCH": 88742, "BSTAR": 0.016554746, "MEAN_MOTION_DOT": 0.01581078, "MEAN_MOTION_DDOT": 0}, "tle": {"line1": "1 34453U 93036SW  25338.78449367  .01581078  00000+0  16555-1 0  9991", "line2": "2 34453  74.1155 117.1411 0019995 349.5838  10.4964 15.61070868887428"}}, "geometry": {"type": "Point", "coordinates": [-34.431625857226024, -61.51671848235593]}}, {"type": "Feature", "properties": {"norad_id": 34454, "name": "COSMOS 2251 DEB", "group": "cosmos-2251-debris", "lat": -37.32662187551647, "lon": -82.97365955728701, "alt_km": 747.2386464074698, "timestamp": "2025-12-06T05:40:09.639889+00:00", "meta": {"OBJECT_NAME": "COSMOS 2251 DEB", "OBJECT_ID": "1993-036SX", "EPOCH": "2025-12-05T06:29:13.628832", "MEAN_MOTION": 14.3878822, "ECCENTRICITY": 0.00352868, "INCLINATION": 74.0585, "RA_OF_ASC_NODE": 291.3932, "ARG_OF_PERICENTER": 355.5245, "MEAN_ANOMALY": 4.5588, "EPHEMERIS_TYPE": 0, "CLASSIFICATION_TYPE": "U", "NORAD_CAT_ID": 34454, "ELEMENT_SET_NO": 999, "REV_AT_EPOCH": 87960, "BSTAR": 0.00050068975, "MEAN_MOTION_DOT": 1.524e-05, "MEAN_MOTION_DDOT": 0}, "tle": {"line1": "1 34454U 93036SX  25339.27029663  .00001524  00000+0  50069-3 0  9992", "line2": "2 34454  74.0585 291.3932 0035286 355.5245   4.5588 14.38788220879606"}}, "geometry": {"type": "Point", "coordinates": [-82.97365955728701, -37.32662187551647]}}, {"type": "Feature", "properties": {"norad_id": 34459, "name": "COSMOS 2251 DEB", "group": "cosmos-2251-debris", "lat": 41.558673272226045, "lon": 70.63145305282174, "alt_km": 1019.0263418501418, "timestamp": "2025-12-06T05:40:09.639899+00:00", "meta": {"OBJECT_NAME": "COSMOS 2251 DEB", "OBJECT_ID": "1993-036TC", "EPOCH": "2025-12-05T05:01:10.227360", "MEAN_MOTION": 14.00477447, "ECCENTRICITY": 0.01919188, "INCLINATION": 74.0791, "RA_OF_ASC_NODE": 267.0639, "ARG_OF_PERICENTER": 338.5462, "MEAN_ANOMALY": 20.7703, "EPHEMERIS_TYPE": 0, "CLASSIFICATION_TYPE": "U", "NORAD_CAT_ID": 34459, "ELEMENT_SET_NO": 999, "REV_AT_EPOCH": 85606, "BSTAR": 0.001067732, "MEAN_MOTION_DOT": 1.834e-05, "MEAN_MOTION_DDOT": 0}, "tle": {"line1": "1 34459U 93036TC  25339.20914615  .00001834  00000+0  10677-2 0  9994", "line2": "2 34459  74.0791 267.0639 0191918 338.5462  20.7703 14.00477447856060"}}, "geometry": {"type": "Point", "coordinates": [70.63145305282174, 41.558673272226045]}}]}